ONEWEB-0720             
1 55835U 23029AR  26047.80227125  .00000100  00000+0  21808-3 0  9990
2 55835  87.9246 328.9511 0001546  87.4631 272.6678 13.19724130142969
ONEWEB-0537             
1 56046U 23043A   26048.04339911 -.00000024  00000+0 -95902-4 0  9999
2 56046  87.8999 252.6817 0001837  92.1639 267.9702 13.16595224143158
ONEWEB-0538             
1 56047U 23043B   26048.03706556  .00000054  00000+0  10772-3 0  9994
2 56047  87.8995 252.6857 0001774  99.9514 260.1817 13.16595531143160
ONEWEB-0546             
1 56048U 23043C   26048.10039640 -.00000025  00000+0 -98907-4 0  9993
2 56048  87.9002 252.6700 0002195  85.6826 274.4556 13.16594976143164
ONEWEB-0547             
1 56049U 23043D   26048.04299913  .00000100  00000+0  20982-3 0  9997
2 56049  87.9177 267.9371 0001553  91.6726 268.4586 13.21827067142356
ONEWEB-0548             
1 56050U 23043E   26048.04892698 -.00000030  00000+0 -11166-3 0  9996
2 56050  87.8998 252.6807 0001253  77.5084 282.6187 13.16596035143156
ONEWEB-0549             
1 56051U 23043F   26048.03560228  .00000139  00000+0  30481-3 0  9996
2 56051  87.9178 267.9512 0001662  97.3896 262.7427 13.21823976142355
ONEWEB-0550             
1 56052U 23043G   26048.09812521  .00000138  00000+0  30264-3 0  9997
2 56052  87.9178 267.9339 0001528  83.3258 276.8050 13.21827282142364
ONEWEB-0551             
1 56053U 23043H   26048.13675712 -.00000095  00000+0 -28690-3 0  9996
2 56053  87.8966 283.1998 0001684 101.9057 258.2262 13.15546392140615
ONEWEB-0552             
1 56054U 23043J   26048.16888655  .00000163  00000+0  36203-3 0  9995
2 56054  87.9178 267.9280 0001410  96.0422 264.0872 13.21824624142374
ONEWEB-0553             
1 56055U 23043K   26048.03072542  .00000087  00000+0  19501-3 0  9999
2 56055  87.8999 252.6873 0001798  81.5145 278.6190 13.16595892143162
ONEWEB-0554             
1 56056U 23043L   26048.09405550  .00000049  00000+0  94245-4 0  9992
2 56056  87.8999 252.6854 0001394  81.7423 278.3866 13.16595646143158
ONEWEB-0555             
1 56057U 23043M   26048.05606539  .00000048  00000+0  91225-4 0  9993
2 56057  87.8997 252.6768 0002012  80.2735 279.8623 13.16595683143157
ONEWEB-0557             
1 56058U 23043N   26048.07031049  .00000104  00000+0  23782-3 0  9999
2 56058  87.8997 252.6859 0001834  48.8623 311.2666 13.16595955143156
ONEWEB-0558             
1 56059U 23043P   26048.16230339  .00000228  00000+0  52134-3 0  9993
2 56059  87.9175 267.9217 0001801 106.0091 254.1241 13.21824679142385
ONEWEB-0559             
1 56060U 23043Q   26048.15078933  .00000005  00000+0 -18458-4 0  9990
2 56060  87.9170 267.9182 0001481  98.6199 261.5102 13.21826189142399
ONEWEB-0566             
1 56061U 23043R   26048.14420902 -.00000003  00000+0 -39753-4 0  9997
2 56061  87.9174 267.9182 0001608 101.9069 258.2245 13.21825189142377
