[{"OBJECT_NAME":"ONEWEB-0720","OBJECT_ID":"2023-029AR","EPOCH":"2026-02-16T19:15:16.236000","MEAN_MOTION":13.1972413,"ECCENTRICITY":0.0001546,"INCLINATION":87.9246,"RA_OF_ASC_NODE":328.9511,"ARG_OF_PERICENTER":87.4631,"MEAN_ANOMALY":272.6678,"EPHEMERIS_TYPE":0,"CLASSIFICATION_TYPE":"U","NORAD_CAT_ID":55835,"ELEMENT_SET_NO":999,"REV_AT_EPOCH":14296,"BSTAR":0.00021808,"MEAN_MOTION_DOT":1.0e-6,"MEAN_MOTION_DDOT":0},{"OBJECT_NAME":"ONEWEB-0537","OBJECT_ID":"2023-043A","EPOCH":"2026-02-17T01:02:29.683104","MEAN_MOTION":13.16595224,"ECCENTRICITY":0.0001837,"INCLINATION":87.8999,"RA_OF_ASC_NODE":252.6817,"ARG_OF_PERICENTER":92.1639,"MEAN_ANOMALY":267.9702,"EPHEMERIS_TYPE":0,"CLASSIFICATION_TYPE":"U","NORAD_CAT_ID":56046,"ELEMENT_SET_NO":999,"REV_AT_EPOCH":14315,"BSTAR":-9.5902e-5,"MEAN_MOTION_DOT":-2.4e-7,"MEAN_MOTION_DDOT":0},{"OBJECT_NAME":"ONEWEB-0538","OBJECT_ID":"2023-043B","EPOCH":"2026-02-17T00:53:22.464384","MEAN_MOTION":13.16595531,"ECCENTRICITY":0.0001774,"INCLINATION":87.8995,"RA_OF_ASC_NODE":252.6857,"ARG_OF_PERICENTER":99.9514,"MEAN_ANOMALY":260.1817,"EPHEMERIS_TYPE":0,"CLASSIFICATION_TYPE":"U","NORAD_CAT_ID":56047,"ELEMENT_SET_NO":999,"REV_AT_EPOCH":14316,"BSTAR":0.00010772,"MEAN_MOTION_DOT":5.4e-7,"MEAN_MOTION_DDOT":0},{"OBJECT_NAME":"ONEWEB-0546","OBJECT_ID":"2023-043C","EPOCH":"2026-02-17T02:24:34.248960","MEAN_MOTION":13.16594976,"ECCENTRICITY":0.0002195,"INCLINATION":87.9002,"RA_OF_ASC_NODE":252.67,"ARG_OF_PERICENTER":85.6826,"MEAN_ANOMALY":274.4556,"EPHEMERIS_TYPE":0,"CLASSIFICATION_TYPE":"U","NORAD_CAT_ID":56048,"ELEMENT_SET_NO":999,"REV_AT_EPOCH":14316,"BSTAR":-9.8907e-5,"MEAN_MOTION_DOT":-2.5e-7,"MEAN_MOTION_DDOT":0},{"OBJECT_NAME":"ONEWEB-0547","OBJECT_ID":"2023-043D","EPOCH":"2026-02-17T01:01:55.124832","MEAN_MOTION":13.21827067,"ECCENTRICITY":0.0001553,"INCLINATION":87.9177,"RA_OF_ASC_NODE":267.9371,"ARG_OF_PERICENTER":91.6726,"MEAN_ANOMALY":268.4586,"EPHEMERIS_TYPE":0,"CLASSIFICATION_TYPE":"U","NORAD_CAT_ID":56049,"ELEMENT_SET_NO":999,"REV_AT_EPOCH":14235,"BSTAR":0.00020982,"MEAN_MOTION_DOT":1.0e-6,"MEAN_MOTION_DDOT":0},{"OBJECT_NAME":"ONEWEB-0548","OBJECT_ID":"2023-043E","EPOCH":"2026-02-17T01:10:27.291072","MEAN_MOTION":13.16596035,"ECCENTRICITY":0.0001253,"INCLINATION":87.8998,"RA_OF_ASC_NODE":252.6807,"ARG_OF_PERICENTER":77.5084,"MEAN_ANOMALY":282.6187,"EPHEMERIS_TYPE":0,"CLASSIFICATION_TYPE":"U","NORAD_CAT_ID":56050,"ELEMENT_SET_NO":999,"REV_AT_EPOCH":14315,"BSTAR":-0.00011166,"MEAN_MOTION_DOT":-3.0e-7,"MEAN_MOTION_DDOT":0},{"OBJECT_NAME":"ONEWEB-0549","OBJECT_ID":"2023-043F","EPOCH":"2026-02-17T00:51:16.036992","MEAN_MOTION":13.21823976,"ECCENTRICITY":0.0001662,"INCLINATION":87.9178,"RA_OF_ASC_NODE":267.9512,"ARG_OF_PERICENTER":97.3896,"MEAN_ANOMALY":262.7427,"EPHEMERIS_TYPE":0,"CLASSIFICATION_TYPE":"U","NORAD_CAT_ID":56051,"ELEMENT_SET_NO":999,"REV_AT_EPOCH":14235,"BSTAR":0.00030481,"MEAN_MOTION_DOT":1.39e-6,"MEAN_MOTION_DDOT":0},{"OBJECT_NAME":"ONEWEB-0550","OBJECT_ID":"2023-043G","EPOCH":"2026-02-17T02:21:18.018144","MEAN_MOTION":13.21827282,"ECCENTRICITY":0.0001528,"INCLINATION":87.9178,"RA_OF_ASC_NODE":267.9339,"ARG_OF_PERICENTER":83.3258,"MEAN_ANOMALY":276.805,"EPHEMERIS_TYPE":0,"CLASSIFICATION_TYPE":"U","NORAD_CAT_ID":56052,"ELEMENT_SET_NO":999,"REV_AT_EPOCH":14236,"BSTAR":0.00030264,"MEAN_MOTION_DOT":1.38e-6,"MEAN_MOTION_DDOT":0},{"OBJECT_NAME":"ONEWEB-0551","OBJECT_ID":"2023-043H","EPOCH":"2026-02-17T03:16:55.815168","MEAN_MOTION":13.15546392,"ECCENTRICITY":0.0001684,"INCLINATION":87.8966,"RA_OF_ASC_NODE":283.1998,"ARG_OF_PERICENTER":101.9057,"MEAN_ANOMALY":258.2262,"EPHEMERIS_TYPE":0,"CLASSIFICATION_TYPE":"U","NORAD_CAT_ID":56053,"ELEMENT_SET_NO":999,"REV_AT_EPOCH":14061,"BSTAR":-0.0002869,"MEAN_MOTION_DOT":-9.5e-7,"MEAN_MOTION_DDOT":0},{"OBJECT_NAME":"ONEWEB-0552","OBJECT_ID":"2023-043J","EPOCH":"2026-02-17T04:03:11.797920","MEAN_MOTION":13.21824624,"ECCENTRICITY":0.000141,"INCLINATION":87.9178,"RA_OF_ASC_NODE":267.928,"ARG_OF_PERICENTER":96.0422,"MEAN_ANOMALY":264.0872,"EPHEMERIS_TYPE":0,"CLASSIFICATION_TYPE":"U","NORAD_CAT_ID":56054,"ELEMENT_SET_NO":999,"REV_AT_EPOCH":14237,"BSTAR":0.00036203,"MEAN_MOTION_DOT":1.63e-6,"MEAN_MOTION_DDOT":0},{"OBJECT_NAME":"ONEWEB-0553","OBJECT_ID":"2023-043K","EPOCH":"2026-02-17T00:44:14.676288","MEAN_MOTION":13.16595892,"ECCENTRICITY":0.0001798,"INCLINATION":87.8999,"RA_OF_ASC_NODE":252.6873,"ARG_OF_PERICENTER":81.5145,"MEAN_ANOMALY":278.619,"EPHEMERIS_TYPE":0,"CLASSIFICATION_TYPE":"U","NORAD_CAT_ID":56055,"ELEMENT_SET_NO":999,"REV_AT_EPOCH":14316,"BSTAR":0.00019501,"MEAN_MOTION_DOT":8.7e-7,"MEAN_MOTION_DDOT":0},{"OBJECT_NAME":"ONEWEB-0554","OBJECT_ID":"2023-043L","EPOCH":"2026-02-17T02:15:26.395200","MEAN_MOTION":13.16595646,"ECCENTRICITY":0.0001394,"INCLINATION":87.8999,"RA_OF_ASC_NODE":252.6854,"ARG_OF_PERICENTER":81.7423,"MEAN_ANOMALY":278.3866,"EPHEMERIS_TYPE":0,"CLASSIFICATION_TYPE":"U","NORAD_CAT_ID":56056,"ELEMENT_SET_NO":999,"REV_AT_EPOCH":14315,"BSTAR":9.4245e-5,"MEAN_MOTION_DOT":4.9e-7,"MEAN_MOTION_DDOT":0},{"OBJECT_NAME":"ONEWEB-0555","OBJECT_ID":"2023-043M","EPOCH":"2026-02-17T01:20:44.049696","MEAN_MOTION":13.16595683,"ECCENTRICITY":0.0002012,"INCLINATION":87.8997,"RA_OF_ASC_NODE":252.6768,"ARG_OF_PERICENTER":80.2735,"MEAN_ANOMALY":279.8623,"EPHEMERIS_TYPE":0,"CLASSIFICATION_TYPE":"U","NORAD_CAT_ID":56057,"ELEMENT_SET_NO":999,"REV_AT_EPOCH":14315,"BSTAR":9.1225e-5,"MEAN_MOTION_DOT":4.8e-7,"MEAN_MOTION_DDOT":0},{"OBJECT_NAME":"ONEWEB-0557","OBJECT_ID":"2023-043N","EPOCH":"2026-02-17T01:41:14.826336","MEAN_MOTION":13.16595955,"ECCENTRICITY":0.0001834,"INCLINATION":87.8997,"RA_OF_ASC_NODE":252.6859,"ARG_OF_PERICENTER":48.8623,"MEAN_ANOMALY":311.2666,"EPHEMERIS_TYPE":0,"CLASSIFICATION_TYPE":"U","NORAD_CAT_ID":56058,"ELEMENT_SET_NO":999,"REV_AT_EPOCH":14315,"BSTAR":0.00023782,"MEAN_MOTION_DOT":1.04e-6,"MEAN_MOTION_DDOT":0},{"OBJECT_NAME":"ONEWEB-0558","OBJECT_ID":"2023-043P","EPOCH":"2026-02-17T03:53:43.012896","MEAN_MOTION":13.21824679,"ECCENTRICITY":0.0001801,"INCLINATION":87.9175,"RA_OF_ASC_NODE":267.9217,"ARG_OF_PERICENTER":106.0091,"MEAN_ANOMALY":254.1241,"EPHEMERIS_TYPE":0,"CLASSIFICATION_TYPE":"U","NORAD_CAT_ID":56059,"ELEMENT_SET_NO":999,"REV_AT_EPOCH":14238,"BSTAR":0.00052134,"MEAN_MOTION_DOT":2.28e-6,"MEAN_MOTION_DDOT":0},{"OBJECT_NAME":"ONEWEB-0559","OBJECT_ID":"2023-043Q","EPOCH":"2026-02-17T03:37:08.198112","MEAN_MOTION":13.21826189,"ECCENTRICITY":0.0001481,"INCLINATION":87.917,"RA_OF_ASC_NODE":267.9182,"ARG_OF_PERICENTER":98.6199,"MEAN_ANOMALY":261.5102,"EPHEMERIS_TYPE":0,"CLASSIFICATION_TYPE":"U","NORAD_CAT_ID":56060,"ELEMENT_SET_NO":999,"REV_AT_EPOCH":14239,"BSTAR":-1.8458e-5,"MEAN_MOTION_DOT":5.0e-8,"MEAN_MOTION_DDOT":0},{"OBJECT_NAME":"ONEWEB-0566","OBJECT_ID":"2023-043R","EPOCH":"2026-02-17T03:27:39.659328","MEAN_MOTION":13.21825189,"ECCENTRICITY":0.0001608,"INCLINATION":87.9174,"RA_OF_ASC_NODE":267.9182,"ARG_OF_PERICENTER":101.9069,"MEAN_ANOMALY":258.2245,"EPHEMERIS_TYPE":0,"CLASSIFICATION_TYPE":"U","NORAD_CAT_ID":56061,"ELEMENT_SET_NO":999,"REV_AT_EPOCH":14237,"BSTAR":-3.9753e-5,"MEAN_MOTION_DOT":-3.0e-8,"MEAN_MOTION_DDOT":0}]
